{
  "type": "FeatureCollection",
  "features": [
    {
      "type": "Feature",
      "properties": {
        "id": "CT01",
        "tc": 1,
        "grid_id": 67,
        "name": "Cámara Trampa 1",
        "type": "camera_trap",
        "altitude_m": 1263
      },
      "geometry": {
        "type": "Point",
        "coordinates": [
          -71.72707,
          -39.45183
        ]
      }
    },
    {
      "type": "Feature",
      "properties": {
        "id": "CT02",
        "tc": 2,
        "grid_id": 57,
        "name": "Cámara Trampa 2",
        "type": "camera_trap",
        "altitude_m": 1223
      },
      "geometry": {
        "type": "Point",
        "coordinates": [
          -71.73252,
          -39.45163
        ]
      }
    },
    {
      "type": "Feature",
      "properties": {
        "id": "CT03",
        "tc": 3,
        "grid_id": 34,
        "name": "Cámara Trampa 3",
        "type": "camera_trap",
        "altitude_m": 998
      },
      "geometry": {
        "type": "Point",
        "coordinates": [
          -71.7422,
          -39.43796
        ]
      }
    },
    {
      "type": "Feature",
      "properties": {
        "id": "CT04",
        "tc": 4,
        "grid_id": 24,
        "name": "Cámara Trampa 4",
        "type": "camera_trap",
        "altitude_m": 1004
      },
      "geometry": {
        "type": "Point",
        "coordinates": [
          -71.74829,
          -39.43774
        ]
      }
    },
    {
      "type": "Feature",
      "properties": {
        "id": "CT05",
        "tc": 5,
        "grid_id": 58,
        "name": "Cámara Trampa 5",
        "type": "camera_trap",
        "altitude_m": 1270
      },
      "geometry": {
        "type": "Point",
        "coordinates": [
          -71.73253,
          -39.45579
        ]
      }
    },
    {
      "type": "Feature",
      "properties": {
        "id": "CT06",
        "tc": 6,
        "grid_id": 11,
        "name": "Cámara Trampa 6",
        "type": "camera_trap",
        "altitude_m": 861
      },
      "geometry": {
        "type": "Point",
        "coordinates": [
          -71.75465,
          -39.42418
        ]
      }
    },
    {
      "type": "Feature",
      "properties": {
        "id": "CT07",
        "tc": 7,
        "grid_id": 56,
        "name": "Cámara Trampa 7",
        "type": "camera_trap",
        "altitude_m": 1232
      },
      "geometry": {
        "type": "Point",
        "coordinates": [
          -71.73228,
          -39.44718
        ]
      }
    },
    {
      "type": "Feature",
      "properties": {
        "id": "CT08",
        "tc": 8,
        "grid_id": 35,
        "name": "Cámara Trampa 8",
        "type": "camera_trap",
        "altitude_m": 1048
      },
      "geometry": {
        "type": "Point",
        "coordinates": [
          -71.74485,
          -39.44286
        ]
      }
    },
    {
      "type": "Feature",
      "properties": {
        "id": "CT09",
        "tc": 9,
        "grid_id": 12,
        "name": "Cámara Trampa 9",
        "type": "camera_trap",
        "altitude_m": 886
      },
      "geometry": {
        "type": "Point",
        "coordinates": [
          -71.75478,
          -39.42885
        ]
      }
    },
    {
      "type": "Feature",
      "properties": {
        "id": "CT10",
        "tc": 10,
        "grid_id": 36,
        "name": "Cámara Trampa 10",
        "type": "camera_trap",
        "altitude_m": 1135
      },
      "geometry": {
        "type": "Point",
        "coordinates": [
          -71.7439,
          -39.44675
        ]
      }
    },
    {
      "type": "Feature",
      "properties": {
        "id": "CT11",
        "tc": 11,
        "grid_id": 27,
        "name": "Cámara Trampa 11",
        "type": "camera_trap",
        "altitude_m": 1102
      },
      "geometry": {
        "type": "Point",
        "coordinates": [
          -71.74873,
          -39.4513
        ]
      }
    },
    {
      "type": "Feature",
      "properties": {
        "id": "CT12",
        "tc": 12,
        "grid_id": 29,
        "name": "Cámara Trampa 12",
        "type": "camera_trap",
        "altitude_m": 1209
      },
      "geometry": {
        "type": "Point",
        "coordinates": [
          -71.75111,
          -39.45905
        ]
      }
    },
    {
      "type": "Feature",
      "properties": {
        "id": "CT13",
        "tc": 13,
        "grid_id": 28,
        "name": "Cámara Trampa 13",
        "type": "camera_trap",
        "altitude_m": 1172
      },
      "geometry": {
        "type": "Point",
        "coordinates": [
          -71.75083,
          -39.45556
        ]
      }
    },
    {
      "type": "Feature",
      "properties": {
        "id": "CT14",
        "tc": 14,
        "grid_id": 46,
        "name": "Cámara Trampa 14",
        "type": "camera_trap",
        "altitude_m": 1048
      },
      "geometry": {
        "type": "Point",
        "coordinates": [
          -71.73836,
          -39.44709
        ]
      }
    },
    {
      "type": "Feature",
      "properties": {
        "id": "CT15",
        "tc": 15,
        "grid_id": 37,
        "name": "Cámara Trampa 15",
        "type": "camera_trap",
        "altitude_m": 1118
      },
      "geometry": {
        "type": "Point",
        "coordinates": [
          -71.74398,
          -39.45142
        ]
      }
    },
    {
      "type": "Feature",
      "properties": {
        "id": "CT16",
        "tc": 16,
        "grid_id": 38,
        "name": "Cámara Trampa 16",
        "type": "camera_trap",
        "altitude_m": 1126
      },
      "geometry": {
        "type": "Point",
        "coordinates": [
          -71.74502,
          -39.45524
        ]
      }
    },
    {
      "type": "Feature",
      "properties": {
        "id": "CT17",
        "tc": 17,
        "grid_id": 47,
        "name": "Cámara Trampa 17",
        "type": "camera_trap",
        "altitude_m": 1062
      },
      "geometry": {
        "type": "Point",
        "coordinates": [
          -71.73987,
          -39.4518
        ]
      }
    },
    {
      "type": "Feature",
      "properties": {
        "id": "CT18",
        "tc": 18,
        "grid_id": 33,
        "name": "Cámara Trampa 18",
        "type": "camera_trap",
        "altitude_m": 978
      },
      "geometry": {
        "type": "Point",
        "coordinates": [
          -71.74338,
          -39.4332
        ]
      }
    },
    {
      "type": "Feature",
      "properties": {
        "id": "CT19",
        "tc": 19,
        "grid_id": 13,
        "name": "Cámara Trampa 19",
        "type": "camera_trap",
        "altitude_m": 923
      },
      "geometry": {
        "type": "Point",
        "coordinates": [
          -71.75497,
          -39.43286
        ]
      }
    },
    {
      "type": "Feature",
      "properties": {
        "id": "CT20",
        "tc": 20,
        "grid_id": 4,
        "name": "Cámara Trampa 20",
        "type": "camera_trap",
        "altitude_m": 1231
      },
      "geometry": {
        "type": "Point",
        "coordinates": [
          -71.76076,
          -39.43752
        ]
      }
    },
    {
      "type": "Feature",
      "properties": {
        "id": "CT21",
        "tc": 21,
        "grid_id": 45,
        "name": "Cámara Trampa 21",
        "type": "camera_trap",
        "altitude_m": 1037
      },
      "geometry": {
        "type": "Point",
        "coordinates": [
          -71.73801,
          -39.44299
        ]
      }
    },
    {
      "type": "Feature",
      "properties": {
        "id": "CT22",
        "tc": 22,
        "grid_id": 23,
        "name": "Cámara Trampa 22",
        "type": "camera_trap",
        "altitude_m": 951
      },
      "geometry": {
        "type": "Point",
        "coordinates": [
          -71.74903,
          -39.43296
        ]
      }
    },
    {
      "type": "Feature",
      "properties": {
        "id": "CT23",
        "tc": 23,
        "grid_id": 44,
        "name": "Cámara Trampa 23",
        "type": "camera_trap",
        "altitude_m": 974
      },
      "geometry": {
        "type": "Point",
        "coordinates": [
          -71.739,
          -39.43704
        ]
      }
    },
    {
      "type": "Feature",
      "properties": {
        "id": "CT24",
        "tc": 24,
        "grid_id": 43,
        "name": "Cámara Trampa 24",
        "type": "camera_trap",
        "altitude_m": 957
      },
      "geometry": {
        "type": "Point",
        "coordinates": [
          -71.73804,
          -39.43359
        ]
      }
    },
    {
      "type": "Feature",
      "properties": {
        "id": "CT25",
        "tc": 25,
        "grid_id": 32,
        "name": "Cámara Trampa 25",
        "type": "camera_trap",
        "altitude_m": 945
      },
      "geometry": {
        "type": "Point",
        "coordinates": [
          -71.74325,
          -39.42929
        ]
      }
    },
    {
      "type": "Feature",
      "properties": {
        "id": "CT26",
        "tc": 26,
        "grid_id": 22,
        "name": "Cámara Trampa 26",
        "type": "camera_trap",
        "altitude_m": 920
      },
      "geometry": {
        "type": "Point",
        "coordinates": [
          -71.74894,
          -39.42908
        ]
      }
    },
    {
      "type": "Feature",
      "properties": {
        "id": "CT27",
        "tc": 27,
        "grid_id": null,
        "name": "Cámara Trampa 27",
        "type": "camera_trap",
        "altitude_m": 1408.06
      },
      "geometry": {
        "type": "Point",
        "coordinates": [
          -71.72243,
          -39.45689
        ]
      }
    }
  ]
}
